[
  {
    "OBJECT_NAME": "STARLINK-3894",
    "OBJECT_ID": "22049BA",
    "EPOCH": "2025-11-11T01:04:19.904448",
    "MEAN_MOTION": 15.08838713,
    "ECCENTRICITY": 0.0001142,
    "INCLINATION": 53.2175,
    "RA_OF_ASC_NODE": 221.7408,
    "ARG_OF_PERICENTER": 91.5222,
    "MEAN_ANOMALY": 268.5901,
    "EPHEMERIS_TYPE": 0,
    "CLASSIFICATION_TYPE": "U",
    "NORAD_CAT_ID": 52499,
    "ELEMENT_SET_NO": 999,
    "REV_AT_EPOCH": 19448,
    "BSTAR": 0.00019035,
    "MEAN_MOTION_DOT": 2.743e-05,
    "MEAN_MOTION_DDOT": 0.0,
    "TLE_LINE1": "1 52499U 22049BA  25315.04467482  .00002743  00000+0  19035-3 0  9993",
    "TLE_LINE2": "2 52499  53.2175 221.7408 0001142  91.5222 268.5901 15.08838713194488",
    "COMMENT": "Grouped by shell and plane from TLE"
  },
  {
    "OBJECT_NAME": "STARLINK-3907",
    "OBJECT_ID": "22049BC",
    "EPOCH": "2025-11-11T03:43:17.233248",
    "MEAN_MOTION": 15.08853613,
    "ECCENTRICITY": 0.000135,
    "INCLINATION": 53.2165,
    "RA_OF_ASC_NODE": 221.0371,
    "ARG_OF_PERICENTER": 109.0994,
    "MEAN_ANOMALY": 251.0145,
    "EPHEMERIS_TYPE": 0,
    "CLASSIFICATION_TYPE": "U",
    "NORAD_CAT_ID": 52501,
    "ELEMENT_SET_NO": 999,
    "REV_AT_EPOCH": 19450,
    "BSTAR": 0.00050139,
    "MEAN_MOTION_DOT": 7.704e-05,
    "MEAN_MOTION_DDOT": 0.0,
    "TLE_LINE1": "1 52501U 22049BC  25315.15506057  .00007704  00000+0  50139-3 0  9993",
    "TLE_LINE2": "2 52501  53.2165 221.0371 0001350 109.0994 251.0145 15.08853613194501",
    "COMMENT": "Grouped by shell and plane from TLE"
  },
  {
    "OBJECT_NAME": "STARLINK-4477",
    "OBJECT_ID": "22101V",
    "EPOCH": "2025-11-11T03:13:25.707648",
    "MEAN_MOTION": 15.08832896,
    "ECCENTRICITY": 0.0001474,
    "INCLINATION": 53.2191,
    "RA_OF_ASC_NODE": 225.8658,
    "ARG_OF_PERICENTER": 67.1576,
    "MEAN_ANOMALY": 292.9572,
    "EPHEMERIS_TYPE": 0,
    "CLASSIFICATION_TYPE": "U",
    "NORAD_CAT_ID": 53546,
    "ELEMENT_SET_NO": 999,
    "REV_AT_EPOCH": 17855,
    "BSTAR": 0.00014862,
    "MEAN_MOTION_DOT": 2.078e-05,
    "MEAN_MOTION_DDOT": 0.0,
    "TLE_LINE1": "1 53546U 22101V   25315.13432532  .00002078  00000+0  14862-3 0  9998",
    "TLE_LINE2": "2 53546  53.2191 225.8658 0001474  67.1576 292.9572 15.08832896178552",
    "COMMENT": "Grouped by shell and plane from TLE"
  },
  {
    "OBJECT_NAME": "STARLINK-4564",
    "OBJECT_ID": "22101AK",
    "EPOCH": "2025-11-11T04:38:19.214880",
    "MEAN_MOTION": 15.08844444,
    "ECCENTRICITY": 0.0001182,
    "INCLINATION": 53.2164,
    "RA_OF_ASC_NODE": 226.2538,
    "ARG_OF_PERICENTER": 79.5643,
    "MEAN_ANOMALY": 280.5482,
    "EPHEMERIS_TYPE": 0,
    "CLASSIFICATION_TYPE": "U",
    "NORAD_CAT_ID": 53560,
    "ELEMENT_SET_NO": 999,
    "REV_AT_EPOCH": 17855,
    "BSTAR": 0.00015068999999999998,
    "MEAN_MOTION_DOT": 2.112e-05,
    "MEAN_MOTION_DDOT": 0.0,
    "TLE_LINE1": "1 53560U 22101AK  25315.19327795  .00002112  00000+0  15069-3 0  9993",
    "TLE_LINE2": "2 53560  53.2164 226.2538 0001182  79.5643 280.5482 15.08844444178553",
    "COMMENT": "Grouped by shell and plane from TLE"
  },
  {
    "OBJECT_NAME": "STARLINK-4565",
    "OBJECT_ID": "22101AM",
    "EPOCH": "2025-11-11T01:22:14.754144",
    "MEAN_MOTION": 15.08845114,
    "ECCENTRICITY": 0.0001536,
    "INCLINATION": 53.2184,
    "RA_OF_ASC_NODE": 226.8291,
    "ARG_OF_PERICENTER": 92.6655,
    "MEAN_ANOMALY": 267.4513,
    "EPHEMERIS_TYPE": 0,
    "CLASSIFICATION_TYPE": "U",
    "NORAD_CAT_ID": 53562,
    "ELEMENT_SET_NO": 999,
    "REV_AT_EPOCH": 17919,
    "BSTAR": 0.00015705,
    "MEAN_MOTION_DOT": 2.213e-05,
    "MEAN_MOTION_DDOT": 0.0,
    "TLE_LINE1": "1 53562U 22101AM  25315.05711521  .00002213  00000+0  15705-3 0  9993",
    "TLE_LINE2": "2 53562  53.2184 226.8291 0001536  92.6655 267.4513 15.08845114179196",
    "COMMENT": "Grouped by shell and plane from TLE"
  },
  {
    "OBJECT_NAME": "STARLINK-4561",
    "OBJECT_ID": "22101AN",
    "EPOCH": "2025-11-11T04:43:32.916864",
    "MEAN_MOTION": 15.08896074,
    "ECCENTRICITY": 0.000103,
    "INCLINATION": 53.2165,
    "RA_OF_ASC_NODE": 226.2775,
    "ARG_OF_PERICENTER": 82.2522,
    "MEAN_ANOMALY": 277.8587,
    "EPHEMERIS_TYPE": 0,
    "CLASSIFICATION_TYPE": "U",
    "NORAD_CAT_ID": 53563,
    "ELEMENT_SET_NO": 999,
    "REV_AT_EPOCH": 17855,
    "BSTAR": 0.00059841,
    "MEAN_MOTION_DOT": 9.263e-05,
    "MEAN_MOTION_DDOT": 0.0,
    "TLE_LINE1": "1 53563U 22101AN  25315.19690876  .00009263  00000+0  59841-3 0  9999",
    "TLE_LINE2": "2 53563  53.2165 226.2775 0001030  82.2522 277.8587 15.08896074178550",
    "COMMENT": "Grouped by shell and plane from TLE"
  },
  {
    "OBJECT_NAME": "STARLINK-4577",
    "OBJECT_ID": "22101AP",
    "EPOCH": "2025-11-11T01:11:38.176224",
    "MEAN_MOTION": 15.08837266,
    "ECCENTRICITY": 0.0001457,
    "INCLINATION": 53.2173,
    "RA_OF_ASC_NODE": 226.789,
    "ARG_OF_PERICENTER": 85.1009,
    "MEAN_ANOMALY": 275.015,
    "EPHEMERIS_TYPE": 0,
    "CLASSIFICATION_TYPE": "U",
    "NORAD_CAT_ID": 53564,
    "ELEMENT_SET_NO": 999,
    "REV_AT_EPOCH": 17853,
    "BSTAR": 0.0,
    "MEAN_MOTION_DOT": -6.28e-06,
    "MEAN_MOTION_DDOT": 0.0,
    "TLE_LINE1": "1 53564U 22101AP  25315.04974741 -.00000628  00000+0 -21372-4 0  9997",
    "TLE_LINE2": "2 53564  53.2173 226.7890 0001457  85.1009 275.0150 15.08837266178530",
    "COMMENT": "Grouped by shell and plane from TLE"
  },
  {
    "OBJECT_NAME": "STARLINK-4575",
    "OBJECT_ID": "22101AQ",
    "EPOCH": "2025-11-11T02:59:00.793536",
    "MEAN_MOTION": 15.08841327,
    "ECCENTRICITY": 0.0001432,
    "INCLINATION": 53.218,
    "RA_OF_ASC_NODE": 226.5366,
    "ARG_OF_PERICENTER": 92.9782,
    "MEAN_ANOMALY": 267.1374,
    "EPHEMERIS_TYPE": 0,
    "CLASSIFICATION_TYPE": "U",
    "NORAD_CAT_ID": 53565,
    "ELEMENT_SET_NO": 999,
    "REV_AT_EPOCH": 17920,
    "BSTAR": 6.3076e-05,
    "MEAN_MOTION_DOT": 7.16e-06,
    "MEAN_MOTION_DDOT": 0.0,
    "TLE_LINE1": "1 53565U 22101AQ  25315.12431474  .00000716  00000+0  63076-4 0  9991",
    "TLE_LINE2": "2 53565  53.2180 226.5366 0001432  92.9782 267.1374 15.08841327179200",
    "COMMENT": "Grouped by shell and plane from TLE"
  },
  {
    "OBJECT_NAME": "STARLINK-4576",
    "OBJECT_ID": "22101AR",
    "EPOCH": "2025-11-11T04:11:47.388192",
    "MEAN_MOTION": 15.08840264,
    "ECCENTRICITY": 0.0001538,
    "INCLINATION": 53.218,
    "RA_OF_ASC_NODE": 226.1425,
    "ARG_OF_PERICENTER": 95.1592,
    "MEAN_ANOMALY": 264.9576,
    "EPHEMERIS_TYPE": 0,
    "CLASSIFICATION_TYPE": "U",
    "NORAD_CAT_ID": 53566,
    "ELEMENT_SET_NO": 999,
    "REV_AT_EPOCH": 17924,
    "BSTAR": 0.00014869,
    "MEAN_MOTION_DOT": 2.079e-05,
    "MEAN_MOTION_DDOT": 0.0,
    "TLE_LINE1": "1 53566U 22101AR  25315.17485403  .00002079  00000+0  14869-3 0  9997",
    "TLE_LINE2": "2 53566  53.2180 226.1425 0001538  95.1592 264.9576 15.08840264179246",
    "COMMENT": "Grouped by shell and plane from TLE"
  },
  {
    "OBJECT_NAME": "STARLINK-4585",
    "OBJECT_ID": "22101AS",
    "EPOCH": "2025-11-11T04:27:41.607072",
    "MEAN_MOTION": 15.08854547,
    "ECCENTRICITY": 0.0001309,
    "INCLINATION": 53.2165,
    "RA_OF_ASC_NODE": 226.2123,
    "ARG_OF_PERICENTER": 89.5266,
    "MEAN_ANOMALY": 270.5876,
    "EPHEMERIS_TYPE": 0,
    "CLASSIFICATION_TYPE": "U",
    "NORAD_CAT_ID": 53567,
    "ELEMENT_SET_NO": 999,
    "REV_AT_EPOCH": 17855,
    "BSTAR": 0.00014892,
    "MEAN_MOTION_DOT": 2.084e-05,
    "MEAN_MOTION_DDOT": 0.0,
    "TLE_LINE1": "1 53567U 22101AS  25315.18589823  .00002084  00000+0  14892-3 0  9992",
    "TLE_LINE2": "2 53567  53.2165 226.2123 0001309  89.5266 270.5876 15.08854547178555",
    "COMMENT": "Grouped by shell and plane from TLE"
  },
  {
    "OBJECT_NAME": "STARLINK-4583",
    "OBJECT_ID": "22101AT",
    "EPOCH": "2025-11-11T03:55:51.066336",
    "MEAN_MOTION": 15.08877253,
    "ECCENTRICITY": 0.000176,
    "INCLINATION": 53.2153,
    "RA_OF_ASC_NODE": 226.07,
    "ARG_OF_PERICENTER": 95.5014,
    "MEAN_ANOMALY": 264.6179,
    "EPHEMERIS_TYPE": 0,
    "CLASSIFICATION_TYPE": "U",
    "NORAD_CAT_ID": 53568,
    "ELEMENT_SET_NO": 999,
    "REV_AT_EPOCH": 17924,
    "BSTAR": 0.0023752,
    "MEAN_MOTION_DOT": 0.00037754,
    "MEAN_MOTION_DDOT": 0.0,
    "TLE_LINE1": "1 53568U 22101AT  25315.16378549  .00037754  00000+0  23752-2 0  9998",
    "TLE_LINE2": "2 53568  53.2153 226.0700 0001760  95.5014 264.6179 15.08877253179247",
    "COMMENT": "Grouped by shell and plane from TLE"
  },
  {
    "OBJECT_NAME": "STARLINK-4582",
    "OBJECT_ID": "22101AU",
    "EPOCH": "2025-11-11T04:17:05.453376",
    "MEAN_MOTION": 15.0884525,
    "ECCENTRICITY": 0.0001442,
    "INCLINATION": 53.2174,
    "RA_OF_ASC_NODE": 226.1662,
    "ARG_OF_PERICENTER": 88.9577,
    "MEAN_ANOMALY": 271.1581,
    "EPHEMERIS_TYPE": 0,
    "CLASSIFICATION_TYPE": "U",
    "NORAD_CAT_ID": 53569,
    "ELEMENT_SET_NO": 999,
    "REV_AT_EPOCH": 17922,
    "BSTAR": 0.00014301,
    "MEAN_MOTION_DOT": 1.989e-05,
    "MEAN_MOTION_DDOT": 0.0,
    "TLE_LINE1": "1 53569U 22101AU  25315.17853534  .00001989  00000+0  14301-3 0  9994",
    "TLE_LINE2": "2 53569  53.2174 226.1662 0001442  88.9577 271.1581 15.08845250179226",
    "COMMENT": "Grouped by shell and plane from TLE"
  },
  {
    "OBJECT_NAME": "STARLINK-4550",
    "OBJECT_ID": "22101AV",
    "EPOCH": "2025-11-11T00:50:23.966304",
    "MEAN_MOTION": 15.08858862,
    "ECCENTRICITY": 0.0001348,
    "INCLINATION": 53.2179,
    "RA_OF_ASC_NODE": 226.6895,
    "ARG_OF_PERICENTER": 77.506,
    "MEAN_ANOMALY": 282.6083,
    "EPHEMERIS_TYPE": 0,
    "CLASSIFICATION_TYPE": "U",
    "NORAD_CAT_ID": 53570,
    "ELEMENT_SET_NO": 999,
    "REV_AT_EPOCH": 17922,
    "BSTAR": 0.0,
    "MEAN_MOTION_DOT": -2.309e-05,
    "MEAN_MOTION_DDOT": 0.0,
    "TLE_LINE1": "1 53570U 22101AV  25315.03499961 -.00002309  00000+0 -12693-3 0  9992",
    "TLE_LINE2": "2 53570  53.2179 226.6895 0001348  77.5060 282.6083 15.08858862179229",
    "COMMENT": "Grouped by shell and plane from TLE"
  }
]